NAVSTAR 77 (USA 289)    
1 43873U 18109A   24262.07520213  .00000052  00000+0  00000+0 0  9995
2 43873  55.3327 117.3563 0030662 192.1590 345.3528  2.00559672 42295
